OBJECT_NAME,OBJECT_ID,EPOCH,MEAN_MOTION,ECCENTRICITY,INCLINATION,RA_OF_ASC_NODE,ARG_OF_PERICENTER,MEAN_ANOMALY,EPHEMERIS_TYPE,CLASSIFICATION_TYPE,NORAD_CAT_ID,ELEMENT_SET_NO,REV_AT_EPOCH,BSTAR,MEAN_MOTION_DOT,MEAN_MOTION_DDOT
STARLINK-37141,2026-054T,2026-07-01T03:13:26.035968,15.35457071,.000151,53.1588,121.9115,117.4281,242.6876,0,U,68249,999,1647,.15981E-2,.55883E-3,0
STARLINK-37087,2026-054U,2026-07-01T03:38:40.234848,15.49329619,.0001162,53.1590,123.4616,76.3086,283.8052,0,U,68250,999,1645,.13774E-2,.76969E-3,0
STARLINK-36274,2026-054V,2026-07-01T03:38:21.759936,15.30207862,.0000898,53.1579,129.8621,317.6696,42.4236,0,U,68251,999,1636,.12803E-2,.37761E-3,0
STARLINK-37085,2026-054W,2026-07-01T02:36:55.013184,15.34409622,.0001053,53.1605,122.4577,78.4467,281.6654,0,U,68252,999,1646,.88392E-3,.29615E-3,0
STARLINK-37086,2026-054X,2026-07-01T02:35:44.630880,15.35426408,.0001223,53.1608,122.4607,81.6926,278.4215,0,U,68253,999,1646,.96532E-3,.3347E-3,0
STARLINK-37084,2026-054Y,2026-07-01T02:46:00.139296,15.34420675,.0000814,53.1599,122.4996,105.2612,254.8481,0,U,68254,999,1646,.89873E-3,.30131E-3,0
STARLINK-37075,2026-054Z,2026-07-01T03:28:00.071328,15.49330727,.0001391,53.1588,122.6859,87.0299,273.0869,0,U,68255,999,1646,.1255E-2,.70032E-3,0
STARLINK-36333,2026-054AA,2026-07-01T03:48:59.456736,15.30219840,.0001549,53.1578,129.8979,56.8059,303.3090,0,U,68256,999,1636,.70318E-3,.20537E-3,0
STARLINK-36745,2026-054AB,2026-07-01T02:39:55.835424,15.34410188,.0001399,53.1590,122.4132,98.5574,261.5587,0,U,68257,999,1646,.54689E-3,.18152E-3,0
STARLINK-36890,2026-054AC,2026-07-01T03:29:14.439264,15.30207675,.0001276,53.1568,129.8126,94.8415,265.2731,0,U,68258,999,1636,.10663E-2,.31361E-3,0
STARLINK-36323,2026-054AD,2026-07-01T02:07:27.708960,15.49339074,.0001201,53.1591,123.0541,42.4157,317.6944,0,U,68259,999,1644,.153E-2,.85674E-3,0
STARLINK-37056,2026-054AE,2026-07-01T04:00:03.000096,15.34369906,.0001443,53.1599,121.7021,87.6833,115.7249,0,U,68260,999,591,.10632E-2,.35682E-3,0
STARLINK-37162,2026-055A,2026-07-01T04:06:25.726176,15.34420634,.0001438,53.1587,150.1565,86.3608,273.7559,0,U,68262,999,1733,.96555E-3,.32409E-3,0
STARLINK-37156,2026-055B,2026-07-01T04:16:13.262592,15.34411456,.0001012,53.1587,151.6284,81.8912,278.2205,0,U,68263,999,1731,.12162E-2,.40954E-3,0
STARLINK-37163,2026-055C,2026-07-01T02:08:24.308736,15.34419831,.0002509,53.1571,150.3593,51.9396,308.1833,0,U,68264,999,1732,.11127E-2,.37431E-3,0
STARLINK-37133,2026-055D,2026-07-01T04:25:18.741216,15.34419359,.0001367,53.1587,151.6645,70.3285,289.7865,0,U,68265,999,1731,.12791E-2,.43116E-3,0
STARLINK-37042,2026-055E,2026-07-01T04:18:34.568928,15.34395239,.0001328,53.1588,150.2122,74.7283,285.3866,0,U,68266,999,1733,.12458E-2,.41943E-3,0
STARLINK-37103,2026-055F,2026-07-01T04:27:32.103072,15.34421194,.0001346,53.1580,149.5410,96.3140,263.8016,0,U,68267,999,1734,.12588E-2,.42424E-3,0
STARLINK-36999,2026-055G,2026-07-01T02:59:45.830400,15.34395281,.0001009,53.1566,149.8402,70.7812,289.3299,0,U,68268,999,1733,.89065E-3,.29831E-3,0
STARLINK-36962,2026-055H,2026-07-01T03:11:53.332224,15.34407340,.0001194,53.1565,149.9006,110.1475,249.9656,0,U,68269,999,1733,.13589E-2,.45827E-3,0
STARLINK-37028,2026-055J,2026-07-01T02:33:20.145888,15.34410899,.0001026,53.1574,151.8878,107.3725,252.7390,0,U,68270,999,1730,.83123E-3,.27822E-3,0
STARLINK-37029,2026-055K,2026-07-01T05:03:52.331904,15.34396044,.000085,53.1580,149.6973,69.4647,290.6447,0,U,68271,999,1734,.88554E-3,.29658E-3,0
STARLINK-36974,2026-055L,2026-07-01T02:24:22.842432,15.34413222,.0001338,53.1582,152.5870,119.9844,240.1292,0,U,68272,999,1729,.94932E-3,.31848E-3,0
STARLINK-37019,2026-055M,2026-07-01T02:11:25.652832,15.34408867,.000125,53.1575,150.3693,105.4514,254.6627,0,U,68273,999,1732,.82303E-3,.27541E-3,0
STARLINK-37129,2026-055N,2026-07-01T04:12:29.244672,15.34411243,.0001304,53.1584,150.1817,89.7720,270.3432,0,U,68274,999,1733,.11352E-2,.38189E-3,0
STARLINK-37123,2026-055P,2026-07-01T04:03:23.988960,15.34405603,.000102,53.1593,150.1416,82.2401,277.8717,0,U,68275,999,1733,.10347E-2,.3475E-3,0
STARLINK-37125,2026-055Q,2026-07-01T02:26:34.518624,15.34434556,.000146,53.1576,150.4311,77.2711,282.8455,0,U,68276,999,1732,.16566E-2,.56075E-3,0
STARLINK-36989,2026-055R,2026-07-01T02:14:26.136384,15.34437537,.0001355,53.1583,150.3653,94.5938,265.5219,0,U,68277,999,1732,.13437E-2,.45353E-3,0
STARLINK-36982,2026-055S,2026-07-01T02:17:29.496192,15.34413370,.0001491,53.1590,150.4019,90.5666,269.5508,0,U,68278,999,1732,.10372E-2,.34844E-3,0
STARLINK-36934,2026-055T,2026-07-01T02:23:32.622432,15.34413507,.0001524,53.1570,150.4250,104.0741,256.0431,0,U,68279,999,1732,.84116E-3,.28163E-3,0
