0 STARLINK-37029
1 68271U 26055K   26182.21102236  .00029658  00000-0  88554-3 0  9991
2 68271  53.1580 149.6973 0000850  69.4647 290.6447 15.34396044 17342
0 STARLINK-37103
1 68267U 26055F   26182.18578823  .00042424  00000-0  12588-2 0  9990
2 68267  53.1580 149.5410 0001346  96.3140 263.8016 15.34421194 17349
0 STARLINK-37133
1 68265U 26055D   26182.18424469  .00043116  00000-0  12791-2 0  9999
2 68265  53.1587 151.6645 0001367  70.3285 289.7865 15.34419359 17319
0 STARLINK-37042
1 68266U 26055E   26182.17956677  .00041943  00000-0  12458-2 0  9996
2 68266  53.1588 150.2122 0001328  74.7283 285.3866 15.34395239 17334
0 STARLINK-37156
1 68263U 26055B   26182.17793128  .00040954  00000-0  12162-2 0  9996
2 68263  53.1587 151.6284 0001012  81.8912 278.2205 15.34411456 17318
0 STARLINK-37129
1 68274U 26055N   26182.17533848  .00038189  00000-0  11352-2 0  9996
2 68274  53.1584 150.1817 0001304  89.7720 270.3432 15.34411243 17332
0 STARLINK-37162
1 68262U 26055A   26182.17113109  .00032409  00000-0  96555-3 0  9995
2 68262  53.1587 150.1565 0001438  86.3608 273.7559 15.34420634 17339
0 STARLINK-37123
1 68275U 26055P   26182.16902765  .00034750  00000-0  10347-2 0  9997
2 68275  53.1593 150.1416 0001020  82.2401 277.8717 15.34405603 17338
0 STARLINK-37056
1 68260U 26054AE  26182.16670139  .00035682  00000-0  10632-2 0  9999
2 68260  53.1599 121.7021 0001443  87.6833 115.7249 15.34369906  5917
0 STARLINK-36333
1 68256U 26054AA  26182.15902149  .00020537  00000-0  70318-3 0  9993
2 68256  53.1578 129.8979 0001549  56.8059 303.3090 15.30219840 16362
0 STARLINK-37087
1 68250U 26054U   26182.15185457  .00076969  00000-0  13774-2 0  9994
2 68250  53.1590 123.4616 0001162  76.3086 283.8052 15.49329619 16452
0 STARLINK-36274
1 68251U 26054V   26182.15164074  .00037761  00000-0  12803-2 0  9996
2 68251  53.1579 129.8621 0000898 317.6696  42.4236 15.30207862 16367
0 STARLINK-36890
1 68258U 26054AC  26182.14530601  .00031361  00000-0  10663-2 0  9997
2 68258  53.1568 129.8126 0001276  94.8415 265.2731 15.30207675 16363
0 STARLINK-37075
1 68255U 26054Z   26182.14444527  .00070032  00000-0  12550-2 0  9990
2 68255  53.1588 122.6859 0001391  87.0299 273.0869 15.49330727 16463
0 STARLINK-37141
1 68249U 26054T   26182.13432912  .00055883  00000-0  15981-2 0  9995
2 68249  53.1588 121.9115 0001510 117.4281 242.6876 15.35457071 16473
0 STARLINK-36962
1 68269U 26055H   26182.13325616  .00045827  00000-0  13589-2 0  9999
2 68269  53.1565 149.9006 0001194 110.1475 249.9656 15.34407340 17337
0 STARLINK-36999
1 68268U 26055G   26182.12483600  .00029831  00000-0  89065-3 0  9995
2 68268  53.1566 149.8402 0001009  70.7812 289.3299 15.34395281 17338
0 STARLINK-37084
1 68254U 26054Y   26182.11527939  .00030131  00000-0  89873-3 0  9994
2 68254  53.1599 122.4996 0000814 105.2612 254.8481 15.34420675 16468
0 STARLINK-36745
1 68257U 26054AB  26182.11106291  .00018152  00000-0  54689-3 0  9997
2 68257  53.1590 122.4132 0001399  98.5574 261.5587 15.34410188 16464
0 STARLINK-37085
1 68252U 26054W   26182.10897006  .00029615  00000-0  88392-3 0  9996
2 68252  53.1605 122.4577 0001053  78.4467 281.6654 15.34409622 16463
0 STARLINK-37086
1 68253U 26054X   26182.10815545  .00033470  00000-0  96532-3 0  9994
2 68253  53.1608 122.4607 0001223  81.6926 278.4215 15.35426408 16465
0 STARLINK-37028
1 68270U 26055J   26182.10648317  .00027822  00000-0  83123-3 0  9991
2 68270  53.1574 151.8878 0001026 107.3725 252.7390 15.34410899 17305
0 STARLINK-37125
1 68276U 26055Q   26182.10178841  .00056075  00000-0  16566-2 0  9995
2 68276  53.1576 150.4311 0001460  77.2711 282.8455 15.34434556 17326
0 STARLINK-36974
1 68272U 26055L   26182.10026438  .00031848  00000-0  94932-3 0  9990
2 68272  53.1582 152.5870 0001338 119.9844 240.1292 15.34413222 17296
0 STARLINK-36934
1 68279U 26055T   26182.09968313  .00028163  00000-0  84116-3 0  9991
2 68279  53.1570 150.4250 0001524 104.0741 256.0431 15.34413507 17328
0 STARLINK-36982
1 68278U 26055S   26182.09548028  .00034844  00000-0  10372-2 0  9992
2 68278  53.1590 150.4019 0001491  90.5666 269.5508 15.34413370 17322
0 STARLINK-36989
1 68277U 26055R   26182.09335806  .00045353  00000-0  13437-2 0  9991
2 68277  53.1583 150.3653 0001355  94.5938 265.5219 15.34437537 17327
0 STARLINK-37019
1 68273U 26055M   26182.09126913  .00027541  00000-0  82303-3 0  9992
2 68273  53.1575 150.3693 0001250 105.4514 254.6627 15.34408867 17320
0 STARLINK-37163
1 68264U 26055C   26182.08917024  .00037431  00000-0  11127-2 0  9996
2 68264  53.1571 150.3593 0002509  51.9396 308.1833 15.34419831 17323
0 STARLINK-36323
1 68259U 26054AD  26182.08851515  .00085674  00000-0  15300-2 0  9990
2 68259  53.1591 123.0541 0001201  42.4157 317.6944 15.49339074 16443
